OBJECT_NAME,OBJECT_ID,EPOCH,MEAN_MOTION,ECCENTRICITY,INCLINATION,RA_OF_ASC_NODE,ARG_OF_PERICENTER,MEAN_ANOMALY,EPHEMERIS_TYPE,CLASSIFICATION_TYPE,NORAD_CAT_ID,ELEMENT_SET_NO,REV_AT_EPOCH,BSTAR,MEAN_MOTION_DOT,MEAN_MOTION_DDOT
ONEWEB-0473,2022-012AH,2026-07-15T12:09:27.263520,13.10376979,.00018711,87.8817,30.6323,90.0040,270.1302,0,U,51653,999,21301,-.52817779E-3,-.172E-5,0
ONEWEB-0474,2022-012AJ,2026-07-15T19:17:01.827168,13.10376177,.0001582,87.8823,30.5600,94.1050,266.0258,0,U,51654,999,21304,-.14226E-2,-.484E-5,0
ONEWEB-0475,2022-012AK,2026-07-15T16:45:42.158304,13.17649246,.0001452,87.9147,0.2005,111.9308,248.1978,0,U,51655,999,21744,.14763E-3,.7E-6,0
ONEWEB-0490,2022-138A,2026-07-15T19:02:23.628192,13.19726317,.000207,87.9192,299.2724,105.8489,254.2872,0,U,54113,999,18060,.70717E-4,.41E-6,0
ONEWEB-0492,2022-138B,2026-07-15T19:38:46.017888,13.19725130,.0002242,87.9185,299.2666,104.0076,256.1306,0,U,54114,999,18061,-.71286E-3,-.272E-5,0
ONEWEB-0495,2022-138C,2026-07-15T19:06:56.704032,13.19726092,.0002224,87.9186,299.2738,117.9299,242.2059,0,U,54115,999,18059,.10366E-3,.54E-6,0
ONEWEB-0497,2022-138D,2026-07-15T19:25:07.000320,13.19723462,.0002057,87.9192,299.2649,104.3647,255.7714,0,U,54116,999,18058,-.61007E-4,-.11E-6,0
ONEWEB-0499,2022-138E,2026-07-15T19:01:15.317760,13.19723872,.0001979,87.9184,299.2756,107.8483,252.2866,0,U,54117,999,18059,-.59732E-4,-.11E-6,0
ONEWEB-0500,2022-138F,2026-07-15T19:04:40.810656,13.19725711,.0002089,87.9193,299.2714,98.8136,261.3233,0,U,54118,999,18060,-.72432E-4,-.16E-6,0
ONEWEB-0501,2022-138G,2026-07-15T19:47:54.014208,13.19726187,.0002102,87.9194,299.2654,112.6617,247.4738,0,U,54119,999,18058,-.51758E-4,-.8E-7,0
ONEWEB-0502,2022-138H,2026-07-15T19:27:23.477760,13.19730484,.0001947,87.9194,299.2566,107.5480,252.5866,0,U,54120,999,18060,-.29244E-2,-.1158E-4,0
ONEWEB-0503,2022-138J,2026-07-15T19:11:29.587200,13.19726120,.0001755,87.9197,299.2658,98.2931,261.8400,0,U,54121,999,18059,-.62367E-4,-.12E-6,0
ONEWEB-0504,2022-138K,2026-07-15T18:53:17.886048,13.19726344,.0001888,87.9193,299.2728,107.4950,252.6389,0,U,54122,999,18060,.63314E-4,.38E-6,0
ONEWEB-0505,2022-138L,2026-07-15T18:48:43.450272,13.19724764,.0001995,87.9191,299.2741,114.4553,245.6788,0,U,54123,999,18058,-.33305E-3,-.12E-5,0
ONEWEB-0506,2022-138M,2026-07-15T20:01:33.030912,13.19725780,.0002017,87.9196,299.2612,110.6510,249.4839,0,U,54124,999,18058,.22809E-3,.104E-5,0
ONEWEB-0507,2022-138N,2026-07-15T18:41:55.179168,13.19727017,.0002067,87.9186,299.2819,106.3579,253.7781,0,U,54125,999,18062,.19505E-3,.91E-6,0
ONEWEB-0508,2022-138P,2026-07-15T18:37:22.891296,13.19726006,.0002264,87.9185,299.2820,110.9268,249.2108,0,U,54126,999,18060,.75688E-4,.43E-6,0
ONEWEB-0509,2022-138Q,2026-07-15T16:11:48.117408,13.19724296,.0002034,87.9196,299.2945,105.3571,254.7787,0,U,54127,999,18056,-.91353E-4,-.24E-6,0
ONEWEB-0510,2022-138R,2026-07-15T05:42:24.028704,13.20769836,.00020176,87.9186,268.8469,86.7304,273.4060,0,U,54128,999,18298,.11523509E-3,.6E-6,0
ONEWEB-0511,2022-138S,2026-07-15T17:56:25.075680,13.19723615,.0001744,87.9191,299.2818,104.0170,256.1157,0,U,54129,999,18060,-.72837E-4,-.16E-6,0
ONEWEB-0512,2022-138T,2026-07-15T19:34:13.280736,13.19726538,.0001901,87.9185,299.2713,111.1718,248.9618,0,U,54130,999,18058,-.15323E-3,-.48E-6,0
ONEWEB-0513,2022-138U,2026-07-15T19:25:21.539712,13.20269619,.0001614,87.9193,299.2133,127.7465,232.3814,0,U,54131,999,18049,-.62256E-4,-.12E-6,0
ONEWEB-0514,2022-138V,2026-07-15T18:07:48.059040,13.19726518,.0001962,87.9194,299.2794,97.2755,262.8601,0,U,54132,999,18059,-.25293E-4,.3E-7,0
ONEWEB-0515,2022-138W,2026-07-15T18:06:39.397824,13.20772231,.0002766,87.9190,268.7392,86.1331,274.0118,0,U,54133,999,18307,.17074E-3,.82E-6,0
ONEWEB-0516,2022-138X,2026-07-15T19:20:34.690848,13.19723856,.0002158,87.9187,299.2735,102.9619,257.1755,0,U,54134,999,18060,-.13615E-3,-.42E-6,0
ONEWEB-0517,2022-138Y,2026-07-15T18:51:01.392192,13.19726093,.0001715,87.9193,299.2722,97.8383,262.2945,0,U,54135,999,18060,.68364E-4,.4E-6,0
ONEWEB-0518,2022-138Z,2026-07-15T19:18:18.781056,13.19722980,.0002279,87.9183,299.2759,99.5016,260.6374,0,U,54136,999,18060,.28277E-3,.126E-5,0
ONEWEB-0519,2022-138AA,2026-07-15T19:54:41.399712,13.19723777,.000184,87.9193,299.2639,99.5149,260.6191,0,U,54137,999,18061,.26562E-5,.14E-6,0
ONEWEB-0520,2022-138AB,2026-07-15T18:55:34.326336,13.19726199,.0002094,87.9195,299.2729,108.3710,251.7651,0,U,54138,999,18059,-.15114E-4,.7E-7,0
ONEWEB-0521,2022-138AC,2026-07-15T19:43:18.787008,13.19727031,.0001834,87.9197,299.2550,98.1522,261.9819,0,U,54139,999,18054,-.21992E-3,-.75E-6,0
